GOES-16
1 41866U 16071A   25241.88519918 -.00000088  00000-0  00000-0 0  9990
2 41866   0.0833  95.5899 0001907  97.6070 359.1121  1.00273077 32185
FENGYUN-4A
1 41882U 16077A   25241.90843892 -.00000354  00000-0  00000-0 0  9994
2 41882   1.5757  83.4414 0006238 162.7086 182.9858  1.00272749 32001
FOX-1B (AO-91)
1 43017U 17073E   25241.62234775  .00009101  00000-0  45845-3 0  9993
2 43017  97.5125 110.3605 0167105 250.0045 108.3121 15.05970910421402
CANX-2
1 32790U 08021H   25241.91265543  .00006231  00000-0  47590-3 0  9991
2 32790  97.8297 212.3380 0008389 315.8125  44.2428 15.02311802941020
AIST-2 (RS-43)
1 39133U 13015D   25241.99678767  .00007056  00000-0  31583-3 0  9993
2 39133  64.8702 126.3950 0032096 268.2836  91.4616 15.21589133679523
NANOSATC-BR1
1 40024U 14033Q   25241.94975227  .00018868  00000-0  87382-3 0  9992
2 40024  98.0942 245.6444 0006855 111.2236 248.9730 15.20143043609565
QB50P1
1 40025U 14033R   25241.92873911  .00011870  00000-0  70120-3 0  9996
2 40025  98.0893 229.1363 0011715 132.8881 227.3333 15.11617574608928
QB50P2
1 40032U 14033Y   25241.88427175  .00011391  00000-0  71724-3 0  9995
2 40032  98.0511 217.2630 0010361  87.7173 272.5241 15.09314587608639
PERSEUS-M2
1 40037U 14033AD  25241.95325059  .00002148  00000-0  20687-3 0  9998
2 40037  97.9576 182.5343 0012134 177.8545 182.2728 14.93998285607273
PERSEUS-M1
1 40039U 14033AF  25241.80588361  .00002388  00000-0  22933-3 0  9993
2 40039  97.9297 177.0631 0011887 176.9391 183.1904 14.94001557607103
POLYITAN-1
1 40042U 14033AJ  25241.95748298  .00021324  00000-0  97304-3 0  9995
2 40042  98.1082 238.2203 0011773  85.2448 275.0129 15.20585380609143
TIGRISAT
1 40043U 14033AK  25241.89953605  .00002931  00000-0  35706-3 0  9990
2 40043  97.7462  34.6260 0050038 310.7113  48.9760 14.83275093602410
UKUBE-1
1 40074U 14037F   25241.89109753  .00012352  00000-0  83681-3 0  9998
2 40074  98.4009 211.4016 0003705  83.5426 276.6221 15.06638920604584
DEORBITSAIL
1 40719U 15032E   25241.86149981  .00009604  00000-0  82077-3 0  9998
2 40719  97.6327  99.6149 0011881 113.2914 246.9560 14.97797514547546
HORYU-IV
1 41340U 16012D   25241.44514025  .00035675  00000-0  85158-3 0  9997
2 41340  30.9959 306.8362 0007113 179.2108 180.8550 15.40276182525259
D-SAT
1 42794U 17036AF  25241.91422868  .00010228  00000-0  55264-3 0  9995
2 42794  97.5227 218.3889 0093916  88.4133 272.7852 15.11097349446775
CORVUS-BC2
1 42846U 17042X   25241.92261928  .00004406  00000-0  32705-3 0  9995
2 42846  97.3820  50.6558 0015023  35.0045 325.2166 15.03447280443259
CORVUS-BC1
1 42847U 17042Y   25241.89367834  .00005531  00000-0  40720-3 0  9991
2 42847  97.3833  51.2249 0012677   8.0295 352.1132 15.03682986443275
APRIZESAT-5 
1 37792U 11044E   25241.74563448  .00001247  00000-0  16827-3 0  9994
2 37792  98.2268 162.0348 0052171 219.7837 139.9544 14.80127214755666
APRIZESAT-6
1 37793U 11044F   25241.69509697  .00001132  00000-0  16935-3 0  9998
2 37793  98.2496 141.1315 0042496 299.1697 114.8315 14.76207515754134
APRIZESAT-7
1 39416U 13066A   25241.83551919  .00002097  00000-0  21844-3 0  9994
2 39416  97.7273 195.2094 0038329  96.7245 263.8337 14.90333203637813
APRIZESAT-8
1 39425U 13066K   25241.81487990  .00001470  00000-0  16846-3 0  9999
2 39425  97.7812 189.2219 0047251 162.7131 197.5708 14.86636791636363
BUGSAT-1 (TITA)
1 40014U 14033E   25241.92130382  .00007255  00000-0  42650-3 0  9991
2 40014  98.0678 312.9884 0031994  93.3549 267.1341 15.11573459611770
SAUDISAT-4
1 40016U 14033G   25241.91480028  .00000990  00000-0  13926-3 0  9990
2 40016  97.7185  33.9764 0044183 302.3818  57.3121 14.78855807603019
TABLETSAT-AURORA
1 40017U 14033H   25241.99353984  .00009524  00000-0  55189-3 0  9998
2 40017  98.0659 294.3000 0014257 126.8632 233.3906 15.12349225611116
APRIZESAT-9
1 40018U 14033J   25241.90826017  .00000972  00000-0  15157-3 0  9991
2 40018  97.8655  18.0749 0068022  57.5286 303.2474 14.73594328600651
APRIZESAT-10
1 40019U 14033K   25241.92350433  .00001190  00000-0  19536-3 0  9996
2 40019  97.9277  11.1634 0080696 123.4780 237.4173 14.70335936599446
AISAT
1 40054U 14034B   25241.92764787  .00011246  00000-0  88391-3 0  9995
2 40054  98.2593 129.5147 0014289 112.8259 247.4474 15.00980687603399
COSMOS-2407 [+]
1 28380U 04028A   25241.70186682  .00000060  00000-0  45531-4 0  9995
2 28380  82.9590 290.6914 0038867 349.7115 131.5289 13.76298136 59783
COSMOS-2414 [+]
1 28521U 05002A   25241.78034441  .00000072  00000-0  46608-4 0  9997
2 28521  82.9455 264.0366 0041571  80.8502 279.7361 13.87884439 43390
COSMOS-2463 [+]
1 36519U 10017A   25241.69911000  .00000041  00000-0  29099-4 0  9991
2 36519  82.9580 103.9036 0035260 217.4428 204.9945 13.71636766767979
NOAA-15
1 25338U 98030A   25241.93703274  .00000177  00000-0  90210-4 0  9991
2 25338  98.5330 265.1006 0011332 118.2213 242.0113 14.27008253419750
NOAA-18
1 28654U 05018A   25241.87728720  .00000144  00000-0  99819-4 0  9993
2 28654  98.8383 320.4267 0013196 257.5369 102.4327 14.13631343 45150
NOAA-19
1 33591U 09005A   25241.89688661  .00000145  00000-0  10112-3 0  9999
2 33591  98.9909 307.0348 0014622 131.6535 228.5891 14.13400309853333
SARAL
1 39086U 13009A   25241.90249676  .00000160  00000-0  74688-4 0  9990
2 39086  98.5555  67.1823 0003022  76.3845 283.7675 14.32704144653891
LAPAN-A3
1 41603U 16040E   25241.98590999  .00004744  00000-0  16375-3 0  9991
2 41603  97.1412 243.4373 0010227 349.4402  10.6623 15.30375571510230
BIROS
1 41604U 16040F   25241.83314569  .00049478  00000-0  45941-3 0  9997
2 41604  97.0832 271.1144 0004208 192.7345 167.3811 15.67296649512203
METOP-A
1 29499U 06044A   25241.88898852  .00001792  00000-0  21851-3 0  9996
2 29499  98.3305 334.9420 0177204 277.3386 194.1919 14.74294760982507
METEOR M1
1 35865U 09049A   25241.85790783  .00000156  00000-0  88756-4 0  9990
2 35865  98.6930 202.1464 0003350  76.8256 283.3295 14.23043220827817
METOP-B
1 38771U 12049A   25241.90836169  .00000146  00000-0  86189-4 0  9995
2 38771  98.5704 293.8085 0002066 101.6032 258.5378 14.21477766671886
METEOR M2
1 40069U 14037A   25241.92961388  .00000197  00000-0  10962-3 0  9992
2 40069  98.4760 223.5971 0006161 152.0842 208.0668 14.21323863577945
CSSWE
1 38761U 12048D   25241.71726468  .00027199  00000-0  86524-3 0  9991
2 38761  64.6657 348.1782 0109070 254.2369 104.6711 15.26848641 71634
MCUBED-2
1 39469U 13072H   25241.94496820  .00020798  00000-0  93129-3 0  9993
2 39469 120.4927 315.1120 0175983  61.8643 300.0088 15.08559244 73734
IPEX
1 39471U 13072K   25241.95485098  .00016711  00000-0  88528-3 0  9999
2 39471 120.4689 277.1563 0191277  51.9257 309.8898 15.01277546 71396
FOX-1A (AO-85)
1 40967U 15058D   25241.90684398  .00004353  00000-0  39454-3 0  9999
2 40967  64.7756 102.7080 0149524 168.2968 192.1684 14.88492274 70171
OOREOS
1 37224U 10062C   25241.78018309  .00003786  00000-0  37998-3 0  9990
2 37224  71.9733  19.5466 0016806 262.8780  97.0478 14.91811646 73157
STARS (KUKAI)
1 33498U 09002G   25241.86441159  .00005849  00000-0  57644-3 0  9995
2 33498  98.1228 173.5338 0010299  57.0439 303.1768 14.92395626894970
YUBELEINY-2 (RS-40)
1 38735U 12041C   25241.97952250  .00000031  00000-0  15014-3 0  9995
2 38735  82.4706 256.2550 0017018 347.2537  12.8110 12.42635286593670
AIST-1
1 39492U 13078C   25241.97091755  .00002532  00000-0  23018-3 0  9992
2 39492  82.4176 192.7200 0017541 167.3247 192.8418 14.94739521631723
VELOX-1
1 40057U 14034E   25241.91586986  .00005944  00000-0  56589-3 0  9992
2 40057  98.2805 125.8108 0008829 141.2026 218.9828 14.93791040603058
DX1
1 40071U 14037C   25241.91005326  .00003033  00000-0  33335-3 0  9996
2 40071  98.3460 181.9771 0008479 132.2059 227.9877 14.88427526602757
COSMOS-2491 (RS-46) [i]
1 39497U 13076E   25241.92099168 -.00000001  00000-0 -77307-4 0  9998
2 39497  82.4906 349.9089 0012849  11.0147 349.1212 12.43490274529052
COSMOS-2499 (RS-47) [i]
1 39765U 14028E   25241.91508150  .00000007  00000-0 -10645-4 0  9996
2 39765  82.4451  88.9935 0231097 325.7004  32.9355 12.82894776527679
TRANSIT 5B-5
1 00965U 64083D   25241.90713749  .00000065  00000-0  76989-4 0  9999
2 00965  90.0645 200.8418 0043183  51.4919   2.6022 13.56974243  4119
EUTELSAT 1-F4 (ECS 4)
1 18351U 87078B   25241.56142402 -.00000218  00000-0  00000-0 0  9998
2 18351  14.0370 344.1581 0007024  43.7646 326.0518  0.98691254123885
BISONSAT
1 40968U 15058E   25241.91115720  .00006713  00000-0  55473-3 0  9990
2 40968  64.7757  88.9811 0138872 167.1465 193.3249 14.92470953 73138
DTUSAT-2
1 40030U 14033W   25241.47034148  .00009978  00000-0  63045-3 0  9997
2 40030  98.0633 217.2868 0010399 137.6159 222.5874 15.09227196608596
ELEKTRO-L2
1 41105U 15074A   25241.93794846 -.00000114  00000-0  00000-0 0  9999
2 41105   5.9547  74.1114 0001693 165.2724  62.1937  1.00272625 35581
DOVE-3
1 39429U 13066P   25241.63061038  .00003566  00000-0  49540-3 0  9999
2 39429  97.6994 111.1654 0116976 248.9705 109.8960 14.73843601628025
FORTE
1 24920U 97047A   25241.67239006  .00000193  00000-0  10114-3 0  9994
2 24920  69.9546 312.3803 0024395 311.1643  48.7374 14.27747875457078
DMSP 5D-2 F15/USA-147
1 25991U 99067A   25241.92704956  .00000203  00000-0  12282-3 0  9996
2 25991  99.0355 271.2935 0010916 109.6225  19.2581 14.17408440329384
CASSIOPE-1
1 39265U 13055A   25241.94721213  .00020400 -41951-6  30894-3 0  9992
2 39265  80.9387  54.3433 0375052 308.8428  47.9860 15.01965766623594
D-STAR ONE PHOENIX
1 43188U 18014J   25241.69273336  .00007267  00000-0  42032-3 0  9997
2 43188  97.5529 143.9058 0008003 309.4084  50.6437 15.12536958414630
S-NET D
1 43186U 18014G   25241.69263547  .00007222  00000-0  41787-3 0  9995
2 43186  97.5514 143.7690 0007513 314.9135  45.1485 15.12531201414633
TEN-KOH
1 43677U 18084G   25241.93965412  .00003347  00000-0  26779-3 0  9992
2 43677  98.0836  57.4197 0006635   5.2383 354.8908 15.00912110372444
